[{"OBJECT_NAME":"SL-8 R/B","OBJECT_ID":"1979-089B","EPOCH":"2026-04-20T20:18:39.331584","MEAN_MOTION":14.42376897,"ECCENTRICITY":0.00158414,"INCLINATION":74.0712,"RA_OF_ASC_NODE":13.0066,"ARG_OF_PERICENTER":178.2802,"MEAN_ANOMALY":181.8412,"EPHEMERIS_TYPE":0,"CLASSIFICATION_TYPE":"U","NORAD_CAT_ID":11574,"ELEMENT_SET_NO":999,"REV_AT_EPOCH":44218,"BSTAR":5.9620815e-5,"MEAN_MOTION_DOT":1.71e-6,"MEAN_MOTION_DDOT":0},{"OBJECT_NAME":"SL-14 R/B","OBJECT_ID":"1980-005B","EPOCH":"2026-04-20T20:59:17.806560","MEAN_MOTION":14.9097686,"ECCENTRICITY":0.00163326,"INCLINATION":82.5118,"RA_OF_ASC_NODE":267.2058,"ARG_OF_PERICENTER":27.92,"MEAN_ANOMALY":332.2892,"EPHEMERIS_TYPE":0,"CLASSIFICATION_TYPE":"U","NORAD_CAT_ID":11672,"ELEMENT_SET_NO":999,"REV_AT_EPOCH":48277,"BSTAR":4.1015352e-5,"MEAN_MOTION_DOT":4.31e-6,"MEAN_MOTION_DDOT":0},{"OBJECT_NAME":"SL-8 R/B","OBJECT_ID":"1981-003B","EPOCH":"2026-04-20T19:53:52.915488","MEAN_MOTION":15.12699653,"ECCENTRICITY":0.02569673,"INCLINATION":82.937,"RA_OF_ASC_NODE":250.9997,"ARG_OF_PERICENTER":32.2285,"MEAN_ANOMALY":329.4357,"EPHEMERIS_TYPE":0,"CLASSIFICATION_TYPE":"U","NORAD_CAT_ID":12139,"ELEMENT_SET_NO":999,"REV_AT_EPOCH":32104,"BSTAR":0.00034339679,"MEAN_MOTION_DOT":0.00013835,"MEAN_MOTION_DDOT":0},{"OBJECT_NAME":"SL-3 R/B","OBJECT_ID":"1981-046B","EPOCH":"2026-04-20T21:13:58.600992","MEAN_MOTION":15.43002,"ECCENTRICITY":0.00182598,"INCLINATION":81.2313,"RA_OF_ASC_NODE":239.0286,"ARG_OF_PERICENTER":230.5702,"MEAN_ANOMALY":129.3926,"EPHEMERIS_TYPE":0,"CLASSIFICATION_TYPE":"U","NORAD_CAT_ID":12465,"ELEMENT_SET_NO":999,"REV_AT_EPOCH":44493,"BSTAR":0.00023908252,"MEAN_MOTION_DOT":0.00010632,"MEAN_MOTION_DDOT":0},{"OBJECT_NAME":"SL-3 R/B","OBJECT_ID":"1981-103B","EPOCH":"2026-04-20T22:11:00.333024","MEAN_MOTION":15.21818901,"ECCENTRICITY":0.00140759,"INCLINATION":81.1586,"RA_OF_ASC_NODE":163.8803,"ARG_OF_PERICENTER":140.9664,"MEAN_ANOMALY":219.2587,"EPHEMERIS_TYPE":0,"CLASSIFICATION_TYPE":"U","NORAD_CAT_ID":12904,"ELEMENT_SET_NO":999,"REV_AT_EPOCH":97965,"BSTAR":0.0001338543,"MEAN_MOTION_DOT":3.072e-5,"MEAN_MOTION_DDOT":0},{"OBJECT_NAME":"SL-3 R/B","OBJECT_ID":"1982-013B","EPOCH":"2026-04-20T21:59:26.808864","MEAN_MOTION":15.22359985,"ECCENTRICITY":0.00229993,"INCLINATION":81.1713,"RA_OF_ASC_NODE":111.2571,"ARG_OF_PERICENTER":40.5427,"MEAN_ANOMALY":319.7512,"EPHEMERIS_TYPE":0,"CLASSIFICATION_TYPE":"U","NORAD_CAT_ID":13068,"ELEMENT_SET_NO":999,"REV_AT_EPOCH":41077,"BSTAR":0.00013651257,"MEAN_MOTION_DOT":3.198e-5,"MEAN_MOTION_DDOT":0},{"OBJECT_NAME":"SL-3 R/B","OBJECT_ID":"1982-039B","EPOCH":"2026-04-20T22:17:19.067424","MEAN_MOTION":15.10287794,"ECCENTRICITY":0.00280905,"INCLINATION":81.1502,"RA_OF_ASC_NODE":167.2419,"ARG_OF_PERICENTER":180.9589,"MEAN_ANOMALY":179.1588,"EPHEMERIS_TYPE":0,"CLASSIFICATION_TYPE":"U","NORAD_CAT_ID":13154,"ELEMENT_SET_NO":999,"REV_AT_EPOCH":38801,"BSTAR":6.9287702e-5,"MEAN_MOTION_DOT":1.169e-5,"MEAN_MOTION_DDOT":0},{"OBJECT_NAME":"SL-3 R/B","OBJECT_ID":"1982-079B","EPOCH":"2026-04-20T22:05:27.903840","MEAN_MOTION":15.25276296,"ECCENTRICITY":0.00246075,"INCLINATION":81.1444,"RA_OF_ASC_NODE":143.1976,"ARG_OF_PERICENTER":26.4166,"MEAN_ANOMALY":333.8316,"EPHEMERIS_TYPE":0,"CLASSIFICATION_TYPE":"U","NORAD_CAT_ID":13403,"ELEMENT_SET_NO":999,"REV_AT_EPOCH":38413,"BSTAR":0.00014272726,"MEAN_MOTION_DOT":3.647e-5,"MEAN_MOTION_DDOT":0},{"OBJECT_NAME":"SL-14 R/B","OBJECT_ID":"1982-092B","EPOCH":"2026-04-20T23:18:39.228768","MEAN_MOTION":14.867017,"ECCENTRICITY":0.00209329,"INCLINATION":82.5647,"RA_OF_ASC_NODE":101.8368,"ARG_OF_PERICENTER":156.7384,"MEAN_ANOMALY":224.982,"EPHEMERIS_TYPE":0,"CLASSIFICATION_TYPE":"U","NORAD_CAT_ID":13553,"ELEMENT_SET_NO":999,"REV_AT_EPOCH":33521,"BSTAR":3.243792e-5,"MEAN_MOTION_DOT":3.14e-6,"MEAN_MOTION_DDOT":0},{"OBJECT_NAME":"SL-3 R/B","OBJECT_ID":"1983-010B","EPOCH":"2026-04-20T19:15:46.055232","MEAN_MOTION":15.47617278,"ECCENTRICITY":0.00150427,"INCLINATION":81.101,"RA_OF_ASC_NODE":310.5579,"ARG_OF_PERICENTER":259.6629,"MEAN_ANOMALY":100.2921,"EPHEMERIS_TYPE":0,"CLASSIFICATION_TYPE":"U","NORAD_CAT_ID":13819,"ELEMENT_SET_NO":999,"REV_AT_EPOCH":36445,"BSTAR":0.00020179029,"MEAN_MOTION_DOT":0.00010482,"MEAN_MOTION_DDOT":0},{"OBJECT_NAME":"SL-3 R/B","OBJECT_ID":"1983-075B","EPOCH":"2026-04-20T22:50:36.472128","MEAN_MOTION":15.39369249,"ECCENTRICITY":0.00231447,"INCLINATION":97.6132,"RA_OF_ASC_NODE":117.1631,"ARG_OF_PERICENTER":80.0225,"MEAN_ANOMALY":280.3631,"EPHEMERIS_TYPE":0,"CLASSIFICATION_TYPE":"U","NORAD_CAT_ID":14208,"ELEMENT_SET_NO":999,"REV_AT_EPOCH":33665,"BSTAR":0.00024200934,"MEAN_MOTION_DOT":9.457e-5,"MEAN_MOTION_DDOT":0},{"OBJECT_NAME":"COSMOS 1536","OBJECT_ID":"1984-013A","EPOCH":"2026-04-20T20:52:15.560256","MEAN_MOTION":15.2438904,"ECCENTRICITY":0.00158431,"INCLINATION":82.545,"RA_OF_ASC_NODE":65.8936,"ARG_OF_PERICENTER":128.8174,"MEAN_ANOMALY":231.4481,"EPHEMERIS_TYPE":0,"CLASSIFICATION_TYPE":"U","NORAD_CAT_ID":14699,"ELEMENT_SET_NO":999,"REV_AT_EPOCH":27904,"BSTAR":0.00024460988,"MEAN_MOTION_DOT":6.045e-5,"MEAN_MOTION_DDOT":0},{"OBJECT_NAME":"SL-14 R/B","OBJECT_ID":"1984-027B","EPOCH":"2026-04-20T15:27:02.173824","MEAN_MOTION":14.86018612,"ECCENTRICITY":0.0017726,"INCLINATION":82.5444,"RA_OF_ASC_NODE":205.6708,"ARG_OF_PERICENTER":189.7133,"MEAN_ANOMALY":170.3743,"EPHEMERIS_TYPE":0,"CLASSIFICATION_TYPE":"U","NORAD_CAT_ID":14820,"ELEMENT_SET_NO":999,"REV_AT_EPOCH":25386,"BSTAR":3.2833182e-5,"MEAN_MOTION_DOT":3.12e-6,"MEAN_MOTION_DDOT":0},{"OBJECT_NAME":"SL-8 R/B","OBJECT_ID":"1985-006B","EPOCH":"2026-04-20T14:57:05.789088","MEAN_MOTION":14.37809421,"ECCENTRICITY":0.00171933,"INCLINATION":74.0461,"RA_OF_ASC_NODE":183.9893,"ARG_OF_PERICENTER":87.9059,"MEAN_ANOMALY":19.6447,"EPHEMERIS_TYPE":0,"CLASSIFICATION_TYPE":"U","NORAD_CAT_ID":15483,"ELEMENT_SET_NO":999,"REV_AT_EPOCH":16005,"BSTAR":5.7937469e-5,"MEAN_MOTION_DOT":1.49e-6,"MEAN_MOTION_DDOT":0},{"OBJECT_NAME":"SL-12 R/B(2)","OBJECT_ID":"1985-042D","EPOCH":"2026-04-20T23:05:30.297408","MEAN_MOTION":14.21993988,"ECCENTRICITY":0.00332687,"INCLINATION":71.1102,"RA_OF_ASC_NODE":358.4202,"ARG_OF_PERICENTER":58.0651,"MEAN_ANOMALY":313.7715,"EPHEMERIS_TYPE":0,"CLASSIFICATION_TYPE":"U","NORAD_CAT_ID":15772,"ELEMENT_SET_NO":999,"REV_AT_EPOCH":12040,"BSTAR":2.8909051e-5,"MEAN_MOTION_DOT":1.7e-7,"MEAN_MOTION_DDOT":0},{"OBJECT_NAME":"SL-14 R/B","OBJECT_ID":"1985-069B","EPOCH":"2026-04-20T14:46:37.317216","MEAN_MOTION":14.86473668,"ECCENTRICITY":0.00200921,"INCLINATION":82.5282,"RA_OF_ASC_NODE":345.5193,"ARG_OF_PERICENTER":56.2034,"MEAN_ANOMALY":304.1092,"EPHEMERIS_TYPE":0,"CLASSIFICATION_TYPE":"U","NORAD_CAT_ID":15945,"ELEMENT_SET_NO":999,"REV_AT_EPOCH":17906,"BSTAR":2.9478383e-5,"MEAN_MOTION_DOT":2.86e-6,"MEAN_MOTION_DDOT":0},{"OBJECT_NAME":"SL-16 R/B","OBJECT_ID":"1985-097B","EPOCH":"2026-04-20T20:24:59.995296","MEAN_MOTION":14.16607193,"ECCENTRICITY":0.00083344,"INCLINATION":71.004,"RA_OF_ASC_NODE":51.7881,"ARG_OF_PERICENTER":208.166,"MEAN_ANOMALY":166.3107,"EPHEMERIS_TYPE":0,"CLASSIFICATION_TYPE":"U","NORAD_CAT_ID":16182,"ELEMENT_SET_NO":999,"REV_AT_EPOCH":9320,"BSTAR":-2.364161e-6,"MEAN_MOTION_DOT":-5.3e-7,"MEAN_MOTION_DDOT":0}]
