SL-8 R/B                
1 11574U 79089B   26110.84628856  .00000171  00000+0  59621-4 0  9993
2 11574  74.0712  13.0066 0015841 178.2802 181.8412 14.42376897442189
SL-14 R/B               
1 11672U 80005B   26110.87451165  .00000431  00000+0  41015-4 0  9999
2 11672  82.5118 267.2058 0016332  27.9200 332.2892 14.90976860482776
SL-8 R/B                
1 12139U 81003B   26110.82908467  .00013835  00000+0  34340-3 0  9998
2 12139  82.9370 250.9997 0256967  32.2285 329.4357 15.12699653321045
SL-3 R/B                
1 12465U 81046B   26110.88470603  .00010632  00000+0  23908-3 0  9999
2 12465  81.2313 239.0286 0018259 230.5702 129.3926 15.43002000444933
SL-3 R/B                
1 12904U 81103B   26110.92430941  .00003072  00000+0  13385-3 0  9995
2 12904  81.1586 163.8803 0014075 140.9664 219.2587 15.21818901979659
SL-3 R/B                
1 13068U 82013B   26110.91628251  .00003198  00000+0  13651-3 0  9995
2 13068  81.1713 111.2571 0022999  40.5427 319.7512 15.22359985410778
SL-3 R/B                
1 13154U 82039B   26110.92869291  .00001169  00000+0  69288-4 0  9995
2 13154  81.1502 167.2419 0028090 180.9589 179.1588 15.10287794388015
SL-3 R/B                
1 13403U 82079B   26110.92046185  .00003647  00000+0  14273-3 0  9991
2 13403  81.1444 143.1976 0024607  26.4166 333.8316 15.25276296384131
SL-14 R/B               
1 13553U 82092B   26110.97128737  .00000314  00000+0  32438-4 0  9993
2 13553  82.5647 101.8368 0020932 156.7384 224.9820 14.86701700335213
SL-3 R/B                
1 13819U 83010B   26110.80261638  .00010482  00000+0  20179-3 0  9994
2 13819  81.1010 310.5579 0015042 259.6629 100.2921 15.47617278364451
SL-3 R/B                
1 14208U 83075B   26110.95181102  .00009457  00000+0  24201-3 0  9991
2 14208  97.6132 117.1631 0023144  80.0225 280.3631 15.39369249336653
COSMOS 1536             
1 14699U 84013A   26110.86962454  .00006045  00000+0  24461-3 0  9993
2 14699  82.5450  65.8936 0015843 128.8174 231.4481 15.24389040279045
SL-14 R/B               
1 14820U 84027B   26110.64377516  .00000312  00000+0  32833-4 0  9993
2 14820  82.5444 205.6708 0017726 189.7133 170.3743 14.86018612253863
SL-8 R/B                
1 15483U 85006B   26110.62298367  .00000149  00000+0  57937-4 0  9991
2 15483  74.0461 183.9893 0017193  87.9059  19.6447 14.37809421160057
SL-12 R/B(2)            
1 15772U 85042D   26110.96215622  .00000017  00000+0  28909-4 0  9993
2 15772  71.1102 358.4202 0033268  58.0651 313.7715 14.21993988120405
SL-14 R/B               
1 15945U 85069B   26110.61570969  .00000286  00000+0  29478-4 0  9994
2 15945  82.5282 345.5193 0020092  56.2034 304.1092 14.86473668179061
SL-16 R/B               
1 16182U 85097B   26110.85069439 -.00000053  00000+0 -23642-5 0  9992
2 16182  71.0040  51.7881 0008334 208.1660 166.3107 14.16607193 93209
